[{"OBJECT_NAME":"STARLINK-5804","OBJECT_ID":"2023-028AZ","EPOCH":"2026-03-09T18:09:41.726016","MEAN_MOTION":14.98330267,"ECCENTRICITY":0.0003375,"INCLINATION":70.0006,"RA_OF_ASC_NODE":204.3897,"ARG_OF_PERICENTER":266.9531,"MEAN_ANOMALY":93.1241,"EPHEMERIS_TYPE":0,"CLASSIFICATION_TYPE":"U","NORAD_CAT_ID":55788,"ELEMENT_SET_NO":999,"REV_AT_EPOCH":16703,"BSTAR":1.160347e-6,"MEAN_MOTION_DOT":-7.9e-7,"MEAN_MOTION_DDOT":0},{"OBJECT_NAME":"KOMPSAT-7","OBJECT_ID":"2025-279A","EPOCH":"2026-03-09T20:54:17.078400","MEAN_MOTION":15.01421798,"ECCENTRICITY":0.00098953,"INCLINATION":97.6738,"RA_OF_ASC_NODE":18.4558,"ARG_OF_PERICENTER":343.5135,"MEAN_ANOMALY":16.5766,"EPHEMERIS_TYPE":0,"CLASSIFICATION_TYPE":"U","NORAD_CAT_ID":66820,"ELEMENT_SET_NO":999,"REV_AT_EPOCH":1472,"BSTAR":0.00031598708,"MEAN_MOTION_DOT":4.022e-5,"MEAN_MOTION_DDOT":0}]
